TIANWANG 1C (TW-1C)     
1 40926U 15051B   17217.42637731  .00005352  00000-0  12194-3 0  9999
2 40926  97.2268 256.6144 0011004   2.0402 122.7873 15.43302007104515
TIANWANG 1B (TW-1B)     
1 40927U 15051C   17217.40230414  .00005082  00000-0  12026-3 0  9999
2 40927  97.2358 256.5869 0011591  10.8646 114.3007 15.42181937104452
TIANWANG 1A (TW-1A)     
1 40928U 15051D   17217.40293499  .00002576  00000-0  74620-4 0  9996
2 40928  97.2240 252.3327 0013518  27.7435 102.1720 15.36398822104251
LAPAN-A2 (IO-86)        
1 40931U 15052B   17217.55356630  .00000713  00000-0  10287-4 0  9994
2 40931   5.9988 240.7207 0013372 225.2862 134.6165 14.76535501100276
LQSAT                   
1 40958U 15057A   17217.56585376 -.00000012  00000-0  60238-5 0  9995
2 40958  97.9757 292.0179 0016731 268.2868  91.6428 14.72975065 98395
CHUBUSAT-2              
1 41338U 16012B   17217.27054834  .00000342  00000-0  20126-4 0  9994
2 41338  31.0027 160.5226 0014032 185.7086 174.3391 14.99766935 80365
CHUBUSAT-3              
1 41339U 16012C   17217.25861853  .00000269  00000-0  14228-4 0  9994
2 41339  31.0100 159.6639 0013844 192.1606 167.8700 14.99969934 80348
OUFTI-1                 
1 41458U 16025C   17217.63568238  .00001478  00000-0  81995-4 0  9991
2 41458  98.1836 258.0475 0175907 124.1427 237.6622 15.03322459 70010
E-ST@R-II               
1 41459U 16025D   17217.59546019  .00002705  00000-0  14730-3 0  9996
2 41459  98.1812 257.9422 0175320 124.7931 236.9961 15.03147557 69997
AAUSAT 4                
1 41460U 16025E   17217.36341399  .00001758  00000-0  96880-4 0  9991
2 41460  98.1779 257.8327 0169272 123.4344 238.3219 15.04086643 69987
NUSAT 1 (LO-87)         
1 41557U 16033B   17217.28879537  .00001479  00000-0  58206-4 0  9998
2 41557  97.4615 296.8054 0014000 187.7054 172.3972 15.27173563 65920
BEESAT-4                
1 41619U 16040W   17217.14360214  .00001504  00000-0  71150-4 0  9999
2 41619  97.4589 279.0529 0010437 254.8940 105.1141 15.20889179 50037
PRATHAM                 
1 41783U 16059A   17217.61462887  .00000042  00000-0  17653-4 0  9996
2 41783  98.1635 278.4672 0033731   8.2861 351.8891 14.62847905 45825
ALSAT 1N                
1 41789U 16059G   17217.42557223  .00000041  00000-0  17158-4 0  9999
2 41789  98.1644 278.8769 0028513   3.3027 356.8358 14.64061421 45819
NAYIF-1 (EO-88)         
1 42017U 17008BX  17217.57796100  .00001695  00000-0  74837-4 0  9997
2 42017  97.4918 278.9334 0007903  57.4116 302.7882 15.23127852 26007
LILACSAT-1              
1 42725U 98067ME  17217.36322711  .00015579  00000-0  22589-3 0  9999
2 42725  51.6395 152.5354 0007494 126.9534 233.2145 15.56013321 11133
MAX VALIER SAT          
1 42778U 17036P   17217.24870878  .00001186  00000-0  57458-4 0  9996
2 42778  97.4483 276.5027 0014682  95.6560 264.6350 15.20413800  6484
